[
  {
    "COMMENT": "GENERATED VIA SPACETRACK.ORG API",
    "ORIGINATOR": "JSPOC",
    "NORAD_CAT_ID": "40076",
    "OBJECT_NAME": "TDS 1",
    "OBJECT_TYPE": "PAYLOAD",
    "CLASSIFICATION_TYPE": "U",
    "INTLDES": "14037H",
    "EPOCH": "2015-02-28 18:51:32",
    "EPOCH_MICROSECONDS": "563584",
    "MEAN_MOTION": "14.80766176",
    "ECCENTRICITY": "0.000486",
    "INCLINATION": "98.3625",
    "RA_OF_ASC_NODE": "126.8005",
    "ARG_OF_PERICENTER": "245.4875",
    "MEAN_ANOMALY": "114.5816",
    "EPHEMERIS_TYPE": "0",
    "ELEMENT_SET_NO": "999",
    "REV_AT_EPOCH": "3477",
    "BSTAR": "8.8788e-05",
    "MEAN_MOTION_DOT": "6.27e-06",
    "MEAN_MOTION_DDOT": "0",
    "FILE": "1833398",
    "TLE_LINE0": "0 TDS 1",
    "TLE_LINE1": "1 40076U 14037H   15059.78579356  .00000627  00000-0  88788-4 0  9990",
    "TLE_LINE2": "2 40076 098.3625 126.8005 0004860 245.4875 114.5816 14.80766176 34770",
    "OBJECT_ID": "2014-037H",
    "OBJECT_NUMBER": "40076",
    "SEMIMAJOR_AXIS": "7005.043",
    "PERIOD": "97.246",
    "APOGEE": "630.313",
    "PERIGEE": "623.504"
  },
  {
    "COMMENT": "GENERATED VIA SPACETRACK.ORG API",
    "ORIGINATOR": "JSPOC",
    "NORAD_CAT_ID": "40076",
    "OBJECT_NAME": "TDS 1",
    "OBJECT_TYPE": "PAYLOAD",
    "CLASSIFICATION_TYPE": "U",
    "INTLDES": "14037H",
    "EPOCH": "2015-03-01 02:58:04",
    "EPOCH_MICROSECONDS": "273247",
    "MEAN_MOTION": "14.8076644",
    "ECCENTRICITY": "0.0004868",
    "INCLINATION": "98.3625",
    "RA_OF_ASC_NODE": "127.1529",
    "ARG_OF_PERICENTER": "244.7269",
    "MEAN_ANOMALY": "115.344",
    "EPHEMERIS_TYPE": "0",
    "ELEMENT_SET_NO": "999",
    "REV_AT_EPOCH": "3482",
    "BSTAR": "8.6456e-05",
    "MEAN_MOTION_DOT": "6.09e-06",
    "MEAN_MOTION_DDOT": "0",
    "FILE": "1833559",
    "TLE_LINE0": "0 TDS 1",
    "TLE_LINE1": "1 40076U 14037H   15060.12366057  .00000609  00000-0  86456-4 0  9992",
    "TLE_LINE2": "2 40076 098.3625 127.1529 0004868 244.7269 115.3440 14.80766440 34824",
    "OBJECT_ID": "2014-037H",
    "OBJECT_NUMBER": "40076",
    "SEMIMAJOR_AXIS": "7005.042",
    "PERIOD": "97.246",
    "APOGEE": "630.317",
    "PERIGEE": "623.497"
  },
  {
    "COMMENT": "GENERATED VIA SPACETRACK.ORG API",
    "ORIGINATOR": "JSPOC",
    "NORAD_CAT_ID": "40076",
    "OBJECT_NAME": "TDS 1",
    "OBJECT_TYPE": "PAYLOAD",
    "CLASSIFICATION_TYPE": "U",
    "INTLDES": "14037H",
    "EPOCH": "2015-03-01 11:04:35",
    "EPOCH_MICROSECONDS": "924160",
    "MEAN_MOTION": "14.80766795",
    "ECCENTRICITY": "0.0004876",
    "INCLINATION": "98.3625",
    "RA_OF_ASC_NODE": "127.5051",
    "ARG_OF_PERICENTER": "243.4215",
    "MEAN_ANOMALY": "116.6493",
    "EPHEMERIS_TYPE": "0",
    "ELEMENT_SET_NO": "999",
    "REV_AT_EPOCH": "3487",
    "BSTAR": "8.5408e-05",
    "MEAN_MOTION_DOT": "6.01e-06",
    "MEAN_MOTION_DDOT": "0",
    "FILE": "1833622",
    "TLE_LINE0": "0 TDS 1",
    "TLE_LINE1": "1 40076U 14037H   15060.46152690  .00000601  00000-0  85408-4 0  9993",
    "TLE_LINE2": "2 40076 098.3625 127.5051 0004876 243.4215 116.6493 14.80766795 34874",
    "OBJECT_ID": "2014-037H",
    "OBJECT_NUMBER": "40076",
    "SEMIMAJOR_AXIS": "7005.041",
    "PERIOD": "97.246",
    "APOGEE": "630.322",
    "PERIGEE": "623.491"
  },
  {
    "COMMENT": "GENERATED VIA SPACETRACK.ORG API",
    "ORIGINATOR": "JSPOC",
    "NORAD_CAT_ID": "40076",
    "OBJECT_NAME": "TDS 1",
    "OBJECT_TYPE": "PAYLOAD",
    "CLASSIFICATION_TYPE": "U",
    "INTLDES": "14037H",
    "EPOCH": "2015-03-01 19:11:07",
    "EPOCH_MICROSECONDS": "570752",
    "MEAN_MOTION": "14.8076721",
    "ECCENTRICITY": "0.0004871",
    "INCLINATION": "98.3624",
    "RA_OF_ASC_NODE": "127.8572",
    "ARG_OF_PERICENTER": "242.4648",
    "MEAN_ANOMALY": "117.6056",
    "EPHEMERIS_TYPE": "0",
    "ELEMENT_SET_NO": "999",
    "REV_AT_EPOCH": "3492",
    "BSTAR": "8.5646e-05",
    "MEAN_MOTION_DOT": "6.02e-06",
    "MEAN_MOTION_DDOT": "0",
    "FILE": "1833916",
    "TLE_LINE0": "0 TDS 1",
    "TLE_LINE1": "1 40076U 14037H   15060.79939318  .00000602  00000-0  85646-4 0  9994",
    "TLE_LINE2": "2 40076 098.3624 127.8572 0004871 242.4648 117.6056 14.80767210 34923",
    "OBJECT_ID": "2014-037H",
    "OBJECT_NUMBER": "40076",
    "SEMIMAJOR_AXIS": "7005.040",
    "PERIOD": "97.246",
    "APOGEE": "630.317",
    "PERIGEE": "623.493"
  },
  {
    "COMMENT": "GENERATED VIA SPACETRACK.ORG API",
    "ORIGINATOR": "JSPOC",
    "NORAD_CAT_ID": "40076",
    "OBJECT_NAME": "TDS 1",
    "OBJECT_TYPE": "PAYLOAD",
    "CLASSIFICATION_TYPE": "U",
    "INTLDES": "14037H",
    "EPOCH": "2015-03-02 03:17:39",
    "EPOCH_MICROSECONDS": "251039",
    "MEAN_MOTION": "14.80767574",
    "ECCENTRICITY": "0.0004891",
    "INCLINATION": "98.3625",
    "RA_OF_ASC_NODE": "128.2097",
    "ARG_OF_PERICENTER": "241.1916",
    "MEAN_ANOMALY": "118.8815",
    "EPHEMERIS_TYPE": "0",
    "ELEMENT_SET_NO": "999",
    "REV_AT_EPOCH": "3497",
    "BSTAR": "8.4767e-05",
    "MEAN_MOTION_DOT": "5.96e-06",
    "MEAN_MOTION_DDOT": "0",
    "FILE": "1834099",
    "TLE_LINE0": "0 TDS 1",
    "TLE_LINE1": "1 40076U 14037H   15061.13725985  .00000596  00000-0  84767-4 0  9991",
    "TLE_LINE2": "2 40076 098.3625 128.2097 0004891 241.1916 118.8815 14.80767574 34971",
    "OBJECT_ID": "2014-037H",
    "OBJECT_NUMBER": "40076",
    "SEMIMAJOR_AXIS": "7005.039",
    "PERIOD": "97.246",
    "APOGEE": "630.330",
    "PERIGEE": "623.478"
  },
  {
    "COMMENT": "GENERATED VIA SPACETRACK.ORG API",
    "ORIGINATOR": "JSPOC",
    "NORAD_CAT_ID": "40076",
    "OBJECT_NAME": "TDS 1",
    "OBJECT_TYPE": "PAYLOAD",
    "CLASSIFICATION_TYPE": "U",
    "INTLDES": "14037H",
    "EPOCH": "2015-03-02 11:24:10",
    "EPOCH_MICROSECONDS": "863936",
    "MEAN_MOTION": "14.807681",
    "ECCENTRICITY": "0.0004887",
    "INCLINATION": "98.3624",
    "RA_OF_ASC_NODE": "128.5621",
    "ARG_OF_PERICENTER": "238.7733",
    "MEAN_ANOMALY": "121.301",
    "EPHEMERIS_TYPE": "0",
    "ELEMENT_SET_NO": "999",
    "REV_AT_EPOCH": "3502",
    "BSTAR": "8.5747e-05",
    "MEAN_MOTION_DOT": "6.03e-06",
    "MEAN_MOTION_DDOT": "0",
    "FILE": "1834226",
    "TLE_LINE0": "0 TDS 1",
    "TLE_LINE1": "1 40076U 14037H   15061.47512574  .00000603  00000-0  85747-4 0  9994",
    "TLE_LINE2": "2 40076 098.3624 128.5621 0004887 238.7733 121.3010 14.80768100 35029",
    "OBJECT_ID": "2014-037H",
    "OBJECT_NUMBER": "40076",
    "SEMIMAJOR_AXIS": "7005.037",
    "PERIOD": "97.246",
    "APOGEE": "630.325",
    "PERIGEE": "623.479"
  },
  {
    "COMMENT": "GENERATED VIA SPACETRACK.ORG API",
    "ORIGINATOR": "JSPOC",
    "NORAD_CAT_ID": "40076",
    "OBJECT_NAME": "TDS 1",
    "OBJECT_TYPE": "PAYLOAD",
    "CLASSIFICATION_TYPE": "U",
    "INTLDES": "14037H",
    "EPOCH": "2015-03-02 17:53:24",
    "EPOCH_MICROSECONDS": "129023",
    "MEAN_MOTION": "14.80768554",
    "ECCENTRICITY": "0.0004879",
    "INCLINATION": "98.3624",
    "RA_OF_ASC_NODE": "128.8437",
    "ARG_OF_PERICENTER": "237.6903",
    "MEAN_ANOMALY": "122.3834",
    "EPHEMERIS_TYPE": "0",
    "ELEMENT_SET_NO": "999",
    "REV_AT_EPOCH": "3506",
    "BSTAR": "8.6939e-05",
    "MEAN_MOTION_DOT": "6.12e-06",
    "MEAN_MOTION_DDOT": "0",
    "FILE": "1834412",
    "TLE_LINE0": "0 TDS 1",
    "TLE_LINE1": "1 40076U 14037H   15061.74541816  .00000612  00000-0  86939-4 0  9999",
    "TLE_LINE2": "2 40076 098.3624 128.8437 0004879 237.6903 122.3834 14.80768554 35067",
    "OBJECT_ID": "2014-037H",
    "OBJECT_NUMBER": "40076",
    "SEMIMAJOR_AXIS": "7005.036",
    "PERIOD": "97.246",
    "APOGEE": "630.318",
    "PERIGEE": "623.483"
  },
  {
    "COMMENT": "GENERATED VIA SPACETRACK.ORG API",
    "ORIGINATOR": "JSPOC",
    "NORAD_CAT_ID": "40076",
    "OBJECT_NAME": "TDS 1",
    "OBJECT_TYPE": "PAYLOAD",
    "CLASSIFICATION_TYPE": "U",
    "INTLDES": "14037H",
    "EPOCH": "2015-03-03 03:37:14",
    "EPOCH_MICROSECONDS": "44800",
    "MEAN_MOTION": "14.80769381",
    "ECCENTRICITY": "0.0004936",
    "INCLINATION": "98.3621",
    "RA_OF_ASC_NODE": "129.2663",
    "ARG_OF_PERICENTER": "235.1171",
    "MEAN_ANOMALY": "124.96",
    "EPHEMERIS_TYPE": "0",
    "ELEMENT_SET_NO": "999",
    "REV_AT_EPOCH": "3512",
    "BSTAR": "8.9739e-05",
    "MEAN_MOTION_DOT": "6.34e-06",
    "MEAN_MOTION_DDOT": "0",
    "FILE": "1834544",
    "TLE_LINE0": "0 TDS 1",
    "TLE_LINE1": "1 40076U 14037H   15062.15085700  .00000634  00000-0  89739-4 0  9995",
    "TLE_LINE2": "2 40076 098.3621 129.2663 0004936 235.1171 124.9600 14.80769381 35129",
    "OBJECT_ID": "2014-037H",
    "OBJECT_NUMBER": "40076",
    "SEMIMAJOR_AXIS": "7005.033",
    "PERIOD": "97.246",
    "APOGEE": "630.356",
    "PERIGEE": "623.440"
  },
  {
    "COMMENT": "GENERATED VIA SPACETRACK.ORG API",
    "ORIGINATOR": "JSPOC",
    "NORAD_CAT_ID": "40076",
    "OBJECT_NAME": "TDS 1",
    "OBJECT_TYPE": "PAYLOAD",
    "CLASSIFICATION_TYPE": "U",
    "INTLDES": "14037H",
    "EPOCH": "2015-03-03 11:43:45",
    "EPOCH_MICROSECONDS": "585119",
    "MEAN_MOTION": "14.80770038",
    "ECCENTRICITY": "0.0004957",
    "INCLINATION": "98.3623",
    "RA_OF_ASC_NODE": "129.6191",
    "ARG_OF_PERICENTER": "233.5171",
    "MEAN_ANOMALY": "126.5597",
    "EPHEMERIS_TYPE": "0",
    "ELEMENT_SET_NO": "999",
    "REV_AT_EPOCH": "3517",
    "BSTAR": "9.1628e-05",
    "MEAN_MOTION_DOT": "6.48e-06",
    "MEAN_MOTION_DDOT": "0",
    "FILE": "1834654",
    "TLE_LINE0": "0 TDS 1",
    "TLE_LINE1": "1 40076U 14037H   15062.48872205  .00000648  00000-0  91628-4 0  9990",
    "TLE_LINE2": "2 40076 098.3623 129.6191 0004957 233.5171 126.5597 14.80770038 35175",
    "OBJECT_ID": "2014-037H",
    "OBJECT_NUMBER": "40076",
    "SEMIMAJOR_AXIS": "7005.031",
    "PERIOD": "97.246",
    "APOGEE": "630.368",
    "PERIGEE": "623.424"
  }
]
